[{"OBJECT_NAME":"TIANPING 2B","OBJECT_ID":"2022-032C","EPOCH":"2026-03-09T22:22:05.849760","MEAN_MOTION":15.01267566,"ECCENTRICITY":0.00208707,"INCLINATION":97.6053,"RA_OF_ASC_NODE":116.3222,"ARG_OF_PERICENTER":130.0797,"MEAN_ANOMALY":230.2261,"EPHEMERIS_TYPE":0,"CLASSIFICATION_TYPE":"U","NORAD_CAT_ID":52155,"ELEMENT_SET_NO":999,"REV_AT_EPOCH":21538,"BSTAR":0.00026542484,"MEAN_MOTION_DOT":3.368e-5,"MEAN_MOTION_DDOT":0},{"OBJECT_NAME":"STARLINK-5659","OBJECT_ID":"2023-013W","EPOCH":"2026-03-09T00:51:15.306912","MEAN_MOTION":15.02535253,"ECCENTRICITY":8.916e-5,"INCLINATION":43.0035,"RA_OF_ASC_NODE":303.6599,"ARG_OF_PERICENTER":278.5942,"MEAN_ANOMALY":81.48,"EPHEMERIS_TYPE":0,"CLASSIFICATION_TYPE":"U","NORAD_CAT_ID":55351,"ELEMENT_SET_NO":999,"REV_AT_EPOCH":17161,"BSTAR":8.97847e-7,"MEAN_MOTION_DOT":-1.91e-6,"MEAN_MOTION_DDOT":0}]
